{"type": "FeatureCollection", "features": [ {"type": "Feature", "properties": {"norad_id": 66343, "name": "STARLINK-35467", "group": "last-30-days", "lat": 4.24524024338371, "lon": 46.96965842815126, "alt_km": 443.32384091488984, "timestamp": "2025-12-02T21:34:00.040777+00:00", "meta": {"OBJECT_NAME": "STARLINK-35467", "OBJECT_ID": "2025-253AA", "EPOCH": "2025-12-02T12:00:05.998752", "MEAN_MOTION": 15.40639265, "ECCENTRICITY": 0.0001153, "INCLINATION": 43.0007, "RA_OF_ASC_NODE": 44.6979, "ARG_OF_PERICENTER": 272.0829, "MEAN_ANOMALY": 41.1303, "EPHEMERIS_TYPE": 0, "CLASSIFICATION_TYPE": "U", "NORAD_CAT_ID": 66343, "ELEMENT_SET_NO": 999, "REV_AT_EPOCH": 528, "BSTAR": 0.0012676, "MEAN_MOTION_DOT": 0.00052908, "MEAN_MOTION_DDOT": 0}, "tle": {"line1": "1 66343U 25253AA  25336.50006943  .00052908  00000+0  12676-2 0  9992", "line2": "2 66343  43.0007  44.6979 0001153 272.0829  41.1303 15.40639265  5285"}}, "geometry": {"type": "Point", "coordinates": [46.96965842815126, 4.24524024338371]}}, {"type": "Feature", "properties": {"norad_id": 66344, "name": "STARLINK-35511", "group": "last-30-days", "lat": 41.79785185911639, "lon": 148.54622819841254, "alt_km": 408.5768953929137, "timestamp": "2025-12-02T21:34:00.040787+00:00", "meta": {"OBJECT_NAME": "STARLINK-35511", "OBJECT_ID": "2025-253AB", "EPOCH": "2025-12-02T11:51:12.786336", "MEAN_MOTION": 15.50673828, "ECCENTRICITY": 0.0001213, "INCLINATION": 43.0006, "RA_OF_ASC_NODE": 44.5324, "ARG_OF_PERICENTER": 250.7153, "MEAN_ANOMALY": 109.3576, "EPHEMERIS_TYPE": 0, "CLASSIFICATION_TYPE": "U", "NORAD_CAT_ID": 66344, "ELEMENT_SET_NO": 999, "REV_AT_EPOCH": 534, "BSTAR": 0.0018155, "MEAN_MOTION_DOT": 0.00108013, "MEAN_MOTION_DDOT": 0}, "tle": {"line1": "1 66344U 25253AB  25336.49389799  .00108013  00000+0  18155-2 0  9991", "line2": "2 66344  43.0006  44.5324 0001213 250.7153 109.3576 15.50673828  5348"}}, "geometry": {"type": "Point", "coordinates": [148.54622819841254, 41.79785185911639]}}, {"type": "Feature", "properties": {"norad_id": 66345, "name": "STARLINK-35440", "group": "last-30-days", "lat": 42.43520543131671, "lon": 143.33065754545729, "alt_km": 408.6685810448553, "timestamp": "2025-12-02T21:34:00.040798+00:00", "meta": {"OBJECT_NAME": "STARLINK-35440", "OBJECT_ID": "2025-253AC", "EPOCH": "2025-12-02T11:52:12.037728", "MEAN_MOTION": 15.5060579, "ECCENTRICITY": 0.0001101, "INCLINATION": 43.0007, "RA_OF_ASC_NODE": 44.5357, "ARG_OF_PERICENTER": 267.7364, "MEAN_ANOMALY": 92.3371, "EPHEMERIS_TYPE": 0, "CLASSIFICATION_TYPE": "U", "NORAD_CAT_ID": 66345, "ELEMENT_SET_NO": 999, "REV_AT_EPOCH": 534, "BSTAR": 0.0020059, "MEAN_MOTION_DOT": 0.00119257, "MEAN_MOTION_DDOT": 0}, "tle": {"line1": "1 66345U 25253AC  25336.49458377  .00119257  00000+0  20059-2 0  9999", "line2": "2 66345  43.0007  44.5357 0001101 267.7364  92.3371 15.50605790  5341"}}, "geometry": {"type": "Point", "coordinates": [143.33065754545729, 42.43520543131671]}}, {"type": "Feature", "properties": {"norad_id": 66346, "name": "STARLINK-35482", "group": "last-30-days", "lat": 42.15775822367492, "lon": 145.85581815853553, "alt_km": 409.2592924375749, "timestamp": "2025-12-02T21:34:00.040810+00:00", "meta": {"OBJECT_NAME": "STARLINK-35482", "OBJECT_ID": "2025-253AD", "EPOCH": "2025-12-02T11:51:42.469920", "MEAN_MOTION": 15.5059808, "ECCENTRICITY": 0.000183, "INCLINATION": 43.0006, "RA_OF_ASC_NODE": 44.534, "ARG_OF_PERICENTER": 276.321, "MEAN_ANOMALY": 83.7442, "EPHEMERIS_TYPE": 0, "CLASSIFICATION_TYPE": "U", "NORAD_CAT_ID": 66346, "ELEMENT_SET_NO": 999, "REV_AT_EPOCH": 534, "BSTAR": 0.0018279, "MEAN_MOTION_DOT": 0.00108462, "MEAN_MOTION_DDOT": 0}, "tle": {"line1": "1 66346U 25253AD  25336.49424155  .00108462  00000+0  18279-2 0  9994", "line2": "2 66346  43.0006  44.5340 0001830 276.3210  83.7442 15.50598080  5344"}}, "geometry": {"type": "Point", "coordinates": [145.85581815853553, 42.15775822367492]}}, {"type": "Feature", "properties": {"norad_id": 66347, "name": "STARLINK-35438", "group": "last-30-days", "lat": 41.38392259111842, "lon": 151.15072652795325, "alt_km": 411.0810029835584, "timestamp": "2025-12-02T21:34:00.040821+00:00", "meta": {"OBJECT_NAME": "STARLINK-35438", "OBJECT_ID": "2025-253AE", "EPOCH": "2025-12-02T11:50:43.166688", "MEAN_MOTION": 15.50748022, "ECCENTRICITY": 0.0005169, "INCLINATION": 43.0001, "RA_OF_ASC_NODE": 44.5284, "ARG_OF_PERICENTER": 271.7306, "MEAN_ANOMALY": 88.2962, "EPHEMERIS_TYPE": 0, "CLASSIFICATION_TYPE": "U", "NORAD_CAT_ID": 66347, "ELEMENT_SET_NO": 999, "REV_AT_EPOCH": 534, "BSTAR": 0.002323, "MEAN_MOTION_DOT": 0.00139273, "MEAN_MOTION_DDOT": 0}, "tle": {"line1": "1 66347U 25253AE  25336.49355517  .00139273  00000+0  23230-2 0  9997", "line2": "2 66347  43.0001  44.5284 0005169 271.7306  88.2962 15.50748022  5341"}}, "geometry": {"type": "Point", "coordinates": [151.15072652795325, 41.38392259111842]}}, {"type": "Feature", "properties": {"norad_id": 66348, "name": "STARLINK-35849", "group": "last-30-days", "lat": -51.54048039676269, "lon": -145.3944941366447, "alt_km": 376.7849248778084, "timestamp": "2025-12-02T21:34:00.040832+00:00", "meta": {"OBJECT_NAME": "STARLINK-35849", "OBJECT_ID": "2025-254A", "EPOCH": "2025-12-02T12:00:05.998752", "MEAN_MOTION": 15.6745739, "ECCENTRICITY": 0.0001366, "INCLINATION": 53.1585, "RA_OF_ASC_NODE": 325.8345, "ARG_OF_PERICENTER": 80.6249, "MEAN_ANOMALY": 88.5483, "EPHEMERIS_TYPE": 0, "CLASSIFICATION_TYPE": "U", "NORAD_CAT_ID": 66348, "ELEMENT_SET_NO": 999, "REV_AT_EPOCH": 527, "BSTAR": -0.020348, "MEAN_MOTION_DOT": -0.0198234, "MEAN_MOTION_DDOT": 0}, "tle": {"line1": "1 66348U 25254A   25336.50006943 -.01982340  00000+0 -20348-1 0  9997", "line2": "2 66348  53.1585 325.8345 0001366  80.6249  88.5483 15.67457390  5278"}}, "geometry": {"type": "Point", "coordinates": [-145.3944941366447, -51.54048039676269]}}, {"type": "Feature", "properties": {"norad_id": 66349, "name": "STARLINK-35848", "group": "last-30-days", "lat": -52.00797499219257, "lon": -142.3999735685514, "alt_km": 376.76934268630794, "timestamp": "2025-12-02T21:34:00.040842+00:00", "meta": {"OBJECT_NAME": "STARLINK-35848", "OBJECT_ID": "2025-254B", "EPOCH": "2025-12-02T12:00:05.998752", "MEAN_MOTION": 15.67462776, "ECCENTRICITY": 0.0001321, "INCLINATION": 53.1586, "RA_OF_ASC_NODE": 325.8301, "ARG_OF_PERICENTER": 82.0291, "MEAN_ANOMALY": 89.0583, "EPHEMERIS_TYPE": 0, "CLASSIFICATION_TYPE": "U", "NORAD_CAT_ID": 66349, "ELEMENT_SET_NO": 999, "REV_AT_EPOCH": 527, "BSTAR": -0.02042, "MEAN_MOTION_DOT": -0.01988897, "MEAN_MOTION_DDOT": 0}, "tle": {"line1": "1 66349U 25254B   25336.50006943 -.01988897  00000+0 -20420-1 0  9992", "line2": "2 66349  53.1586 325.8301 0001321  82.0291  89.0583 15.67462776  5277"}}, "geometry": {"type": "Point", "coordinates": [-142.3999735685514, -52.00797499219257]}}, {"type": "Feature", "properties": {"norad_id": 66350, "name": "STARLINK-35829", "group": "last-30-days", "lat": -52.39791471894844, "lon": -139.34803679127856, "alt_km": 376.8375282267252, "timestamp": "2025-12-02T21:34:00.040853+00:00", "meta": {"OBJECT_NAME": "STARLINK-35829", "OBJECT_ID": "2025-254C", "EPOCH": "2025-12-02T12:00:05.998752", "MEAN_MOTION": 15.67458264, "ECCENTRICITY": 0.0001406, "INCLINATION": 53.1589, "RA_OF_ASC_NODE": 325.8259, "ARG_OF_PERICENTER": 85.0171, "MEAN_ANOMALY": 87.99, "EPHEMERIS_TYPE": 0, "CLASSIFICATION_TYPE": "U", "NORAD_CAT_ID": 66350, "ELEMENT_SET_NO": 999, "REV_AT_EPOCH": 527, "BSTAR": -0.02037, "MEAN_MOTION_DOT": -0.01984325, "MEAN_MOTION_DDOT": 0}, "tle": {"line1": "1 66350U 25254C   25336.50006943 -.01984325  00000+0 -20370-1 0  9990", "line2": "2 66350  53.1589 325.8259 0001406  85.0171  87.9900 15.67458264  5275"}}, "geometry": {"type": "Point", "coordinates": [-139.34803679127856, -52.39791471894844]}}, {"type": "Feature", "properties": {"norad_id": 66351, "name": "STARLINK-35828", "group": "last-30-days", "lat": -52.707155104761554, "lon": -136.2479832465434, "alt_km": 376.7716448139836, "timestamp": "2025-12-02T21:34:00.040863+00:00", "meta": {"OBJECT_NAME": "STARLINK-35828", "OBJECT_ID": "2025-254D", "EPOCH": "2025-12-02T12:00:05.998752", "MEAN_MOTION": 15.67454171, "ECCENTRICITY": 0.0001311, "INCLINATION": 53.1587, "RA_OF_ASC_NODE": 325.822, "ARG_OF_PERICENTER": 85.7094, "MEAN_ANOMALY": 89.2145, "EPHEMERIS_TYPE": 0, "CLASSIFICATION_TYPE": "U", "NORAD_CAT_ID": 66351, "ELEMENT_SET_NO": 999, "REV_AT_EPOCH": 524, "BSTAR": -0.020282, "MEAN_MOTION_DOT": -0.01976407, "MEAN_MOTION_DDOT": 0}, "tle": {"line1": "1 66351U 25254D   25336.50006943 -.01976407  00000+0 -20282-1 0  9995", "line2": "2 66351  53.1587 325.8220 0001311  85.7094  89.2145 15.67454171  5244"}}, "geometry": {"type": "Point", "coordinates": [-136.2479832465434, -52.707155104761554]}}, {"type": "Feature", "properties": {"norad_id": 66352, "name": "STARLINK-35850", "group": "last-30-days", "lat": -52.93469525390797, "lon": -133.10973206162842, "alt_km": 376.82129504705426, "timestamp": "2025-12-02T21:34:00.040897+00:00", "meta": {"OBJECT_NAME": "STARLINK-35850", "OBJECT_ID": "2025-254E", "EPOCH": "2025-12-02T12:00:05.998752", "MEAN_MOTION": 15.67455901, "ECCENTRICITY": 0.0001364, "INCLINATION": 53.1589, "RA_OF_ASC_NODE": 325.8177, "ARG_OF_PERICENTER": 84.1517, "MEAN_ANOMALY": 92.6896, "EPHEMERIS_TYPE": 0, "CLASSIFICATION_TYPE": "U", "NORAD_CAT_ID": 66352, "ELEMENT_SET_NO": 999, "REV_AT_EPOCH": 522, "BSTAR": -0.020327, "MEAN_MOTION_DOT": -0.0198042, "MEAN_MOTION_DDOT": 0}, "tle": {"line1": "1 66352U 25254E   25336.50006943 -.01980420  00000+0 -20327-1 0  9996", "line2": "2 66352  53.1589 325.8177 0001364  84.1517  92.6896 15.67455901  5220"}}, "geometry": {"type": "Point", "coordinates": [-133.10973206162842, -52.93469525390797]}}]}